[
    {
        "Altitude(m)": 624792.7511638611,
        "Argument of Periapsis(deg)": 0.0,
        "Eccentricity": 0.0,
        "Inclination(deg)": 60.0,
        "Latitude(deg)": -59.147024185161776,
        "Longitude(deg)": 44.026537806181956,
        "Mean Anomaly(deg)": -98.18179999999998,
        "RAAN(deg)": 250.00000000000003,
        "Satellite Name": "Test1 1116",
        "Satellite Number": 1116,
        "Semi-Major Axis(m)": 6980739.136638005,
        "Time(s)": 0
    },
    {
        "Altitude(m)": 624842.1427329859,
        "Argument of Periapsis(deg)": 0.00010418945913296404,
        "Eccentricity": 0.0,
        "Inclination(deg)": 60.0,
        "Latitude(deg)": -59.28910619359676,
        "Longitude(deg)": 45.1560405141159,
        "Mean Anomaly(deg)": -97.56169385453813,
        "RAAN(deg)": 249.99957995086027,
        "Satellite Name": "Test1 1116",
        "Satellite Number": 1116,
        "Semi-Major Axis(m)": 6980739.136638005,
        "Time(s)": 10
    }
]